[{"OBJECT_NAME":"OBJECT B","OBJECT_ID":"2023-104B","EPOCH":"2026-03-09T23:37:35.785344","MEAN_MOTION":15.97424149,"ECCENTRICITY":0.00046106,"INCLINATION":97.2698,"RA_OF_ASC_NODE":157.8231,"ARG_OF_PERICENTER":305.4696,"MEAN_ANOMALY":54.6151,"EPHEMERIS_TYPE":0,"CLASSIFICATION_TYPE":"U","NORAD_CAT_ID":57425,"ELEMENT_SET_NO":999,"REV_AT_EPOCH":14812,"BSTAR":0.00088849573,"MEAN_MOTION_DOT":0.00389592,"MEAN_MOTION_DDOT":6.4188038e-5},{"OBJECT_NAME":"SL-4 R\/B","OBJECT_ID":"2025-310B","EPOCH":"2026-03-09T22:17:27.678912","MEAN_MOTION":16.04687815,"ECCENTRICITY":0.01171166,"INCLINATION":97.9385,"RA_OF_ASC_NODE":88.8127,"ARG_OF_PERICENTER":159.54,"MEAN_ANOMALY":201.0629,"EPHEMERIS_TYPE":0,"CLASSIFICATION_TYPE":"U","NORAD_CAT_ID":67235,"ELEMENT_SET_NO":999,"REV_AT_EPOCH":1167,"BSTAR":0.00062072602,"MEAN_MOTION_DOT":0.01041733,"MEAN_MOTION_DDOT":2.575978e-6}]
